{
    "links": {
        "self": "http://www.neowsapp.com/rest/v1/neo/3873161?api_key=iIulBulltgU6a56xZRHN4H3l9WmuAYTsLGpBGhQ2"
    },
    "id": "3873161",
    "neo_reference_id": "3873161",
    "name": "(2019 SV9)",
    "designation": "2019 SV9",
    "nasa_jpl_url": "http://ssd.jpl.nasa.gov/sbdb.cgi?sstr=3873161",
    "absolute_magnitude_h": 25.4,
    "estimated_diameter": {
        "kilometers": {
            "estimated_diameter_min": 0.022108281,
            "estimated_diameter_max": 0.0494356193
        },
        "meters": {
            "estimated_diameter_min": 22.1082810359,
            "estimated_diameter_max": 49.435619262
        },
        "miles": {
            "estimated_diameter_min": 0.0137374447,
            "estimated_diameter_max": 0.0307178602
        },
        "feet": {
            "estimated_diameter_min": 72.5337327539,
            "estimated_diameter_max": 162.1903570994
        }
    },
    "is_potentially_hazardous_asteroid": false,
    "close_approach_data": [
        {
            "close_approach_date": "2019-10-12",
            "close_approach_date_full": "2019-Oct-12 21:49",
            "epoch_date_close_approach": 1570916940000,
            "relative_velocity": {
                "kilometers_per_second": "13.5053675438",
                "kilometers_per_hour": "48619.3231576145",
                "miles_per_hour": "30210.1566586855"
            },
            "miss_distance": {
                "astronomical": "0.0219912833",
                "lunar": "8.5546092037",
                "kilometers": "3289849.140246571",
                "miles": "2044217.4641258398"
            },
            "orbiting_body": "Earth"
        }
    ],
    "orbital_data": {
        "orbit_id": "7",
        "orbit_determination_date": "2019-10-21 05:58:40",
        "first_observation_date": "2019-09-30",
        "last_observation_date": "2019-10-11",
        "data_arc_in_days": 11,
        "observations_used": 35,
        "orbit_uncertainty": "8",
        "minimum_orbit_intersection": ".0160921",
        "jupiter_tisserand_invariant": "3.360",
        "epoch_osculation": "2458760.5",
        "eccentricity": ".6290302587300246",
        "semi_major_axis": "2.218415130499766",
        "inclination": "2.51012892057517",
        "ascending_node_longitude": "218.7030631431111",
        "orbital_period": "1206.876010741611",
        "perihelion_distance": ".822964886990897",
        "perihelion_argument": "215.2731034405847",
        "aphelion_distance": "3.613865374008636",
        "perihelion_time": "2458807.085040820761",
        "mean_anomaly": "346.1041113202933",
        "mean_motion": ".2982907910969116",
        "equinox": "J2000",
        "orbit_class": {
            "orbit_class_type": "APO",
            "orbit_class_description": "Near-Earth asteroid orbits which cross the Earth’s orbit similar to that of 1862 Apollo",
            "orbit_class_range": "a (semi-major axis) > 1.0 AU; q (perihelion) < 1.017 AU"
        }
    },
    "is_sentry_object": false
}